<?xml version="1.0" encoding="UTF-8"?>
<gpx version="1.1" creator="@nature/walk-sim samples:generate (seed 20260907)" xmlns="http://www.topografix.com/GPX/1/1" xmlns:ne="https://natureexplorer.app/gpx/walk-sim/1">
  <metadata>
    <name>azuolynas-loop</name>
    <desc>About 2.6 km loop inside Ąžuolynas park (Kaunas) around 54.9035 N, 23.9320 E at 1.35 m/s with ±2 m GPS jitter; roughly 32 minutes; expected: no flags, at least 4 res-9 cells</desc>
  </metadata>
  <trk>
    <name>azuolynas-loop</name>
    <trkseg>
      <trkpt lat="54.9071559" lon="23.9319942"><time>2026-09-07T08:00:00Z</time></trkpt>
      <trkpt lat="54.9071637" lon="23.9320683"><time>2026-09-07T08:00:05Z</time></trkpt>
      <trkpt lat="54.9071383" lon="23.9322529"><time>2026-09-07T08:00:10Z</time></trkpt>
      <trkpt lat="54.9071715" lon="23.9323120"><time>2026-09-07T08:00:15Z</time></trkpt>
      <trkpt lat="54.9071459" lon="23.9324237"><time>2026-09-07T08:00:20Z</time></trkpt>
      <trkpt lat="54.9071057" lon="23.9324889"><time>2026-09-07T08:00:25Z</time></trkpt>
      <trkpt lat="54.9071068" lon="23.9326425"><time>2026-09-07T08:00:30Z</time></trkpt>
      <trkpt lat="54.9070712" lon="23.9327266"><time>2026-09-07T08:00:35Z</time></trkpt>
      <trkpt lat="54.9070942" lon="23.9328389"><time>2026-09-07T08:00:40Z</time></trkpt>
      <trkpt lat="54.9070693" lon="23.9329522"><time>2026-09-07T08:00:45Z</time></trkpt>
      <trkpt lat="54.9070521" lon="23.9330557"><time>2026-09-07T08:00:50Z</time></trkpt>
      <trkpt lat="54.9070139" lon="23.9331719"><time>2026-09-07T08:00:55Z</time></trkpt>
      <trkpt lat="54.9069908" lon="23.9332664"><time>2026-09-07T08:01:00Z</time></trkpt>
      <trkpt lat="54.9069983" lon="23.9333494"><time>2026-09-07T08:01:05Z</time></trkpt>
      <trkpt lat="54.9069548" lon="23.9334040"><time>2026-09-07T08:01:10Z</time></trkpt>
      <trkpt lat="54.9069723" lon="23.9335056"><time>2026-09-07T08:01:15Z</time></trkpt>
      <trkpt lat="54.9069388" lon="23.9336606"><time>2026-09-07T08:01:20Z</time></trkpt>
      <trkpt lat="54.9069010" lon="23.9337388"><time>2026-09-07T08:01:25Z</time></trkpt>
      <trkpt lat="54.9068557" lon="23.9338253"><time>2026-09-07T08:01:30Z</time></trkpt>
      <trkpt lat="54.9068554" lon="23.9339141"><time>2026-09-07T08:01:35Z</time></trkpt>
      <trkpt lat="54.9068651" lon="23.9340406"><time>2026-09-07T08:01:40Z</time></trkpt>
      <trkpt lat="54.9068423" lon="23.9341543"><time>2026-09-07T08:01:45Z</time></trkpt>
      <trkpt lat="54.9068336" lon="23.9342227"><time>2026-09-07T08:01:50Z</time></trkpt>
      <trkpt lat="54.9067718" lon="23.9343206"><time>2026-09-07T08:01:55Z</time></trkpt>
      <trkpt lat="54.9067610" lon="23.9343789"><time>2026-09-07T08:02:00Z</time></trkpt>
      <trkpt lat="54.9067431" lon="23.9344972"><time>2026-09-07T08:02:05Z</time></trkpt>
      <trkpt lat="54.9067180" lon="23.9345755"><time>2026-09-07T08:02:10Z</time></trkpt>
      <trkpt lat="54.9066555" lon="23.9347002"><time>2026-09-07T08:02:15Z</time></trkpt>
      <trkpt lat="54.9066562" lon="23.9347877"><time>2026-09-07T08:02:20Z</time></trkpt>
      <trkpt lat="54.9066452" lon="23.9348858"><time>2026-09-07T08:02:25Z</time></trkpt>
      <trkpt lat="54.9065618" lon="23.9350153"><time>2026-09-07T08:02:30Z</time></trkpt>
      <trkpt lat="54.9065625" lon="23.9351354"><time>2026-09-07T08:02:35Z</time></trkpt>
      <trkpt lat="54.9065720" lon="23.9351654"><time>2026-09-07T08:02:40Z</time></trkpt>
      <trkpt lat="54.9065252" lon="23.9353004"><time>2026-09-07T08:02:45Z</time></trkpt>
      <trkpt lat="54.9064548" lon="23.9353400"><time>2026-09-07T08:02:50Z</time></trkpt>
      <trkpt lat="54.9064621" lon="23.9353981"><time>2026-09-07T08:02:55Z</time></trkpt>
      <trkpt lat="54.9064010" lon="23.9354913"><time>2026-09-07T08:03:00Z</time></trkpt>
      <trkpt lat="54.9063424" lon="23.9355836"><time>2026-09-07T08:03:05Z</time></trkpt>
      <trkpt lat="54.9063197" lon="23.9357075"><time>2026-09-07T08:03:10Z</time></trkpt>
      <trkpt lat="54.9063351" lon="23.9357878"><time>2026-09-07T08:03:15Z</time></trkpt>
      <trkpt lat="54.9062594" lon="23.9358754"><time>2026-09-07T08:03:20Z</time></trkpt>
      <trkpt lat="54.9062471" lon="23.9359397"><time>2026-09-07T08:03:25Z</time></trkpt>
      <trkpt lat="54.9061891" lon="23.9360720"><time>2026-09-07T08:03:30Z</time></trkpt>
      <trkpt lat="54.9061431" lon="23.9361011"><time>2026-09-07T08:03:35Z</time></trkpt>
      <trkpt lat="54.9061091" lon="23.9361971"><time>2026-09-07T08:03:40Z</time></trkpt>
      <trkpt lat="54.9060846" lon="23.9362797"><time>2026-09-07T08:03:45Z</time></trkpt>
      <trkpt lat="54.9060309" lon="23.9363441"><time>2026-09-07T08:03:50Z</time></trkpt>
      <trkpt lat="54.9059887" lon="23.9364734"><time>2026-09-07T08:03:55Z</time></trkpt>
      <trkpt lat="54.9059462" lon="23.9364842"><time>2026-09-07T08:04:00Z</time></trkpt>
      <trkpt lat="54.9059618" lon="23.9365962"><time>2026-09-07T08:04:05Z</time></trkpt>
      <trkpt lat="54.9058685" lon="23.9366257"><time>2026-09-07T08:04:10Z</time></trkpt>
      <trkpt lat="54.9058504" lon="23.9367181"><time>2026-09-07T08:04:15Z</time></trkpt>
      <trkpt lat="54.9057622" lon="23.9367642"><time>2026-09-07T08:04:20Z</time></trkpt>
      <trkpt lat="54.9057176" lon="23.9368375"><time>2026-09-07T08:04:25Z</time></trkpt>
      <trkpt lat="54.9056921" lon="23.9368564"><time>2026-09-07T08:04:30Z</time></trkpt>
      <trkpt lat="54.9056290" lon="23.9369490"><time>2026-09-07T08:04:35Z</time></trkpt>
      <trkpt lat="54.9055362" lon="23.9369736"><time>2026-09-07T08:04:40Z</time></trkpt>
      <trkpt lat="54.9055371" lon="23.9370094"><time>2026-09-07T08:04:45Z</time></trkpt>
      <trkpt lat="54.9054734" lon="23.9370758"><time>2026-09-07T08:04:50Z</time></trkpt>
      <trkpt lat="54.9054045" lon="23.9371674"><time>2026-09-07T08:04:55Z</time></trkpt>
      <trkpt lat="54.9053608" lon="23.9372087"><time>2026-09-07T08:05:00Z</time></trkpt>
      <trkpt lat="54.9053148" lon="23.9372851"><time>2026-09-07T08:05:05Z</time></trkpt>
      <trkpt lat="54.9052551" lon="23.9373556"><time>2026-09-07T08:05:10Z</time></trkpt>
      <trkpt lat="54.9051820" lon="23.9373251"><time>2026-09-07T08:05:15Z</time></trkpt>
      <trkpt lat="54.9051349" lon="23.9373825"><time>2026-09-07T08:05:20Z</time></trkpt>
      <trkpt lat="54.9050884" lon="23.9374706"><time>2026-09-07T08:05:25Z</time></trkpt>
      <trkpt lat="54.9049918" lon="23.9375421"><time>2026-09-07T08:05:30Z</time></trkpt>
      <trkpt lat="54.9049896" lon="23.9375021"><time>2026-09-07T08:05:35Z</time></trkpt>
      <trkpt lat="54.9049002" lon="23.9375898"><time>2026-09-07T08:05:40Z</time></trkpt>
      <trkpt lat="54.9048384" lon="23.9375431"><time>2026-09-07T08:05:45Z</time></trkpt>
      <trkpt lat="54.9048059" lon="23.9376499"><time>2026-09-07T08:05:50Z</time></trkpt>
      <trkpt lat="54.9047504" lon="23.9376732"><time>2026-09-07T08:05:55Z</time></trkpt>
      <trkpt lat="54.9046749" lon="23.9377023"><time>2026-09-07T08:06:00Z</time></trkpt>
      <trkpt lat="54.9046072" lon="23.9377639"><time>2026-09-07T08:06:05Z</time></trkpt>
      <trkpt lat="54.9045677" lon="23.9377134"><time>2026-09-07T08:06:10Z</time></trkpt>
      <trkpt lat="54.9045128" lon="23.9377854"><time>2026-09-07T08:06:15Z</time></trkpt>
      <trkpt lat="54.9044465" lon="23.9377686"><time>2026-09-07T08:06:20Z</time></trkpt>
      <trkpt lat="54.9043908" lon="23.9378141"><time>2026-09-07T08:06:25Z</time></trkpt>
      <trkpt lat="54.9043001" lon="23.9378375"><time>2026-09-07T08:06:30Z</time></trkpt>
      <trkpt lat="54.9042410" lon="23.9378563"><time>2026-09-07T08:06:35Z</time></trkpt>
      <trkpt lat="54.9041770" lon="23.9378523"><time>2026-09-07T08:06:40Z</time></trkpt>
      <trkpt lat="54.9041113" lon="23.9378160"><time>2026-09-07T08:06:45Z</time></trkpt>
      <trkpt lat="54.9040754" lon="23.9378927"><time>2026-09-07T08:06:50Z</time></trkpt>
      <trkpt lat="54.9040341" lon="23.9378754"><time>2026-09-07T08:06:55Z</time></trkpt>
      <trkpt lat="54.9039797" lon="23.9378753"><time>2026-09-07T08:07:00Z</time></trkpt>
      <trkpt lat="54.9038787" lon="23.9378679"><time>2026-09-07T08:07:05Z</time></trkpt>
      <trkpt lat="54.9038429" lon="23.9378684"><time>2026-09-07T08:07:10Z</time></trkpt>
      <trkpt lat="54.9037666" lon="23.9379333"><time>2026-09-07T08:07:15Z</time></trkpt>
      <trkpt lat="54.9037209" lon="23.9378982"><time>2026-09-07T08:07:20Z</time></trkpt>
      <trkpt lat="54.9036420" lon="23.9378283"><time>2026-09-07T08:07:25Z</time></trkpt>
      <trkpt lat="54.9035958" lon="23.9378534"><time>2026-09-07T08:07:30Z</time></trkpt>
      <trkpt lat="54.9035211" lon="23.9378733"><time>2026-09-07T08:07:35Z</time></trkpt>
      <trkpt lat="54.9034870" lon="23.9378819"><time>2026-09-07T08:07:40Z</time></trkpt>
      <trkpt lat="54.9034270" lon="23.9378796"><time>2026-09-07T08:07:45Z</time></trkpt>
      <trkpt lat="54.9033753" lon="23.9378729"><time>2026-09-07T08:07:50Z</time></trkpt>
      <trkpt lat="54.9033010" lon="23.9378100"><time>2026-09-07T08:07:55Z</time></trkpt>
      <trkpt lat="54.9032853" lon="23.9378261"><time>2026-09-07T08:08:00Z</time></trkpt>
      <trkpt lat="54.9031789" lon="23.9378305"><time>2026-09-07T08:08:05Z</time></trkpt>
      <trkpt lat="54.9031334" lon="23.9377808"><time>2026-09-07T08:08:10Z</time></trkpt>
      <trkpt lat="54.9030471" lon="23.9378078"><time>2026-09-07T08:08:15Z</time></trkpt>
      <trkpt lat="54.9029772" lon="23.9378238"><time>2026-09-07T08:08:20Z</time></trkpt>
      <trkpt lat="54.9029377" lon="23.9377893"><time>2026-09-07T08:08:25Z</time></trkpt>
      <trkpt lat="54.9028864" lon="23.9377345"><time>2026-09-07T08:08:30Z</time></trkpt>
      <trkpt lat="54.9027946" lon="23.9376998"><time>2026-09-07T08:08:35Z</time></trkpt>
      <trkpt lat="54.9027558" lon="23.9377395"><time>2026-09-07T08:08:40Z</time></trkpt>
      <trkpt lat="54.9027104" lon="23.9377277"><time>2026-09-07T08:08:45Z</time></trkpt>
      <trkpt lat="54.9026350" lon="23.9377156"><time>2026-09-07T08:08:50Z</time></trkpt>
      <trkpt lat="54.9025635" lon="23.9376552"><time>2026-09-07T08:08:55Z</time></trkpt>
      <trkpt lat="54.9025257" lon="23.9376154"><time>2026-09-07T08:09:00Z</time></trkpt>
      <trkpt lat="54.9024335" lon="23.9376519"><time>2026-09-07T08:09:05Z</time></trkpt>
      <trkpt lat="54.9023581" lon="23.9376351"><time>2026-09-07T08:09:10Z</time></trkpt>
      <trkpt lat="54.9023500" lon="23.9375942"><time>2026-09-07T08:09:15Z</time></trkpt>
      <trkpt lat="54.9022542" lon="23.9376048"><time>2026-09-07T08:09:20Z</time></trkpt>
      <trkpt lat="54.9022184" lon="23.9375204"><time>2026-09-07T08:09:25Z</time></trkpt>
      <trkpt lat="54.9021528" lon="23.9375098"><time>2026-09-07T08:09:30Z</time></trkpt>
      <trkpt lat="54.9020934" lon="23.9374556"><time>2026-09-07T08:09:35Z</time></trkpt>
      <trkpt lat="54.9020192" lon="23.9374997"><time>2026-09-07T08:09:40Z</time></trkpt>
      <trkpt lat="54.9020025" lon="23.9374131"><time>2026-09-07T08:09:45Z</time></trkpt>
      <trkpt lat="54.9019061" lon="23.9374092"><time>2026-09-07T08:09:50Z</time></trkpt>
      <trkpt lat="54.9018624" lon="23.9374118"><time>2026-09-07T08:09:55Z</time></trkpt>
      <trkpt lat="54.9018196" lon="23.9373592"><time>2026-09-07T08:10:00Z</time></trkpt>
      <trkpt lat="54.9017496" lon="23.9373732"><time>2026-09-07T08:10:05Z</time></trkpt>
      <trkpt lat="54.9016890" lon="23.9373320"><time>2026-09-07T08:10:10Z</time></trkpt>
      <trkpt lat="54.9016143" lon="23.9372656"><time>2026-09-07T08:10:15Z</time></trkpt>
      <trkpt lat="54.9015657" lon="23.9372381"><time>2026-09-07T08:10:20Z</time></trkpt>
      <trkpt lat="54.9015057" lon="23.9372471"><time>2026-09-07T08:10:25Z</time></trkpt>
      <trkpt lat="54.9014532" lon="23.9372241"><time>2026-09-07T08:10:30Z</time></trkpt>
      <trkpt lat="54.9013809" lon="23.9371701"><time>2026-09-07T08:10:35Z</time></trkpt>
      <trkpt lat="54.9013396" lon="23.9371525"><time>2026-09-07T08:10:40Z</time></trkpt>
      <trkpt lat="54.9012579" lon="23.9371177"><time>2026-09-07T08:10:45Z</time></trkpt>
      <trkpt lat="54.9012491" lon="23.9370714"><time>2026-09-07T08:10:50Z</time></trkpt>
      <trkpt lat="54.9011493" lon="23.9369936"><time>2026-09-07T08:10:55Z</time></trkpt>
      <trkpt lat="54.9010973" lon="23.9370013"><time>2026-09-07T08:11:00Z</time></trkpt>
      <trkpt lat="54.9010344" lon="23.9369897"><time>2026-09-07T08:11:05Z</time></trkpt>
      <trkpt lat="54.9010072" lon="23.9369177"><time>2026-09-07T08:11:10Z</time></trkpt>
      <trkpt lat="54.9009676" lon="23.9368398"><time>2026-09-07T08:11:15Z</time></trkpt>
      <trkpt lat="54.9008929" lon="23.9368155"><time>2026-09-07T08:11:20Z</time></trkpt>
      <trkpt lat="54.9008274" lon="23.9368328"><time>2026-09-07T08:11:25Z</time></trkpt>
      <trkpt lat="54.9008090" lon="23.9367021"><time>2026-09-07T08:11:30Z</time></trkpt>
      <trkpt lat="54.9007287" lon="23.9366596"><time>2026-09-07T08:11:35Z</time></trkpt>
      <trkpt lat="54.9006773" lon="23.9366371"><time>2026-09-07T08:11:40Z</time></trkpt>
      <trkpt lat="54.9006436" lon="23.9365849"><time>2026-09-07T08:11:45Z</time></trkpt>
      <trkpt lat="54.9005653" lon="23.9365159"><time>2026-09-07T08:11:50Z</time></trkpt>
      <trkpt lat="54.9005046" lon="23.9364195"><time>2026-09-07T08:11:55Z</time></trkpt>
      <trkpt lat="54.9004644" lon="23.9364179"><time>2026-09-07T08:12:00Z</time></trkpt>
      <trkpt lat="54.9004152" lon="23.9363703"><time>2026-09-07T08:12:05Z</time></trkpt>
      <trkpt lat="54.9003934" lon="23.9362831"><time>2026-09-07T08:12:10Z</time></trkpt>
      <trkpt lat="54.9003027" lon="23.9361772"><time>2026-09-07T08:12:15Z</time></trkpt>
      <trkpt lat="54.9002564" lon="23.9361941"><time>2026-09-07T08:12:20Z</time></trkpt>
      <trkpt lat="54.9002376" lon="23.9361059"><time>2026-09-07T08:12:25Z</time></trkpt>
      <trkpt lat="54.9001767" lon="23.9360588"><time>2026-09-07T08:12:30Z</time></trkpt>
      <trkpt lat="54.9001535" lon="23.9359106"><time>2026-09-07T08:12:35Z</time></trkpt>
      <trkpt lat="54.9000581" lon="23.9359453"><time>2026-09-07T08:12:40Z</time></trkpt>
      <trkpt lat="54.9000636" lon="23.9358299"><time>2026-09-07T08:12:45Z</time></trkpt>
      <trkpt lat="54.9000175" lon="23.9357762"><time>2026-09-07T08:12:50Z</time></trkpt>
      <trkpt lat="54.8999328" lon="23.9356464"><time>2026-09-07T08:12:55Z</time></trkpt>
      <trkpt lat="54.8999016" lon="23.9356472"><time>2026-09-07T08:13:00Z</time></trkpt>
      <trkpt lat="54.8998533" lon="23.9354900"><time>2026-09-07T08:13:05Z</time></trkpt>
      <trkpt lat="54.8998410" lon="23.9354705"><time>2026-09-07T08:13:10Z</time></trkpt>
      <trkpt lat="54.8997762" lon="23.9353690"><time>2026-09-07T08:13:15Z</time></trkpt>
      <trkpt lat="54.8997627" lon="23.9352705"><time>2026-09-07T08:13:20Z</time></trkpt>
      <trkpt lat="54.8996940" lon="23.9351912"><time>2026-09-07T08:13:25Z</time></trkpt>
      <trkpt lat="54.8996809" lon="23.9350830"><time>2026-09-07T08:13:30Z</time></trkpt>
      <trkpt lat="54.8996369" lon="23.9350304"><time>2026-09-07T08:13:35Z</time></trkpt>
      <trkpt lat="54.8996199" lon="23.9349043"><time>2026-09-07T08:13:40Z</time></trkpt>
      <trkpt lat="54.8995740" lon="23.9348559"><time>2026-09-07T08:13:45Z</time></trkpt>
      <trkpt lat="54.8995656" lon="23.9347875"><time>2026-09-07T08:13:50Z</time></trkpt>
      <trkpt lat="54.8995359" lon="23.9346796"><time>2026-09-07T08:13:55Z</time></trkpt>
      <trkpt lat="54.8994958" lon="23.9346340"><time>2026-09-07T08:14:00Z</time></trkpt>
      <trkpt lat="54.8994301" lon="23.9345123"><time>2026-09-07T08:14:05Z</time></trkpt>
      <trkpt lat="54.8994423" lon="23.9344026"><time>2026-09-07T08:14:10Z</time></trkpt>
      <trkpt lat="54.8994116" lon="23.9343687"><time>2026-09-07T08:14:15Z</time></trkpt>
      <trkpt lat="54.8994040" lon="23.9341691"><time>2026-09-07T08:14:20Z</time></trkpt>
      <trkpt lat="54.8993808" lon="23.9341422"><time>2026-09-07T08:14:25Z</time></trkpt>
      <trkpt lat="54.8993179" lon="23.9340475"><time>2026-09-07T08:14:30Z</time></trkpt>
      <trkpt lat="54.8993267" lon="23.9338466"><time>2026-09-07T08:14:35Z</time></trkpt>
      <trkpt lat="54.8993112" lon="23.9337897"><time>2026-09-07T08:14:40Z</time></trkpt>
      <trkpt lat="54.8993215" lon="23.9336653"><time>2026-09-07T08:14:45Z</time></trkpt>
      <trkpt lat="54.8992664" lon="23.9335133"><time>2026-09-07T08:14:50Z</time></trkpt>
      <trkpt lat="54.8992660" lon="23.9334767"><time>2026-09-07T08:14:55Z</time></trkpt>
      <trkpt lat="54.8992344" lon="23.9333792"><time>2026-09-07T08:15:00Z</time></trkpt>
      <trkpt lat="54.8992309" lon="23.9332537"><time>2026-09-07T08:15:05Z</time></trkpt>
      <trkpt lat="54.8992529" lon="23.9331556"><time>2026-09-07T08:15:10Z</time></trkpt>
      <trkpt lat="54.8992480" lon="23.9330729"><time>2026-09-07T08:15:15Z</time></trkpt>
      <trkpt lat="54.8992382" lon="23.9329708"><time>2026-09-07T08:15:20Z</time></trkpt>
      <trkpt lat="54.8992638" lon="23.9329389"><time>2026-09-07T08:15:25Z</time></trkpt>
      <trkpt lat="54.8992551" lon="23.9326926"><time>2026-09-07T08:15:30Z</time></trkpt>
      <trkpt lat="54.8992443" lon="23.9326710"><time>2026-09-07T08:15:35Z</time></trkpt>
      <trkpt lat="54.8992206" lon="23.9325557"><time>2026-09-07T08:15:40Z</time></trkpt>
      <trkpt lat="54.8992217" lon="23.9324419"><time>2026-09-07T08:15:45Z</time></trkpt>
      <trkpt lat="54.8992601" lon="23.9323301"><time>2026-09-07T08:15:50Z</time></trkpt>
      <trkpt lat="54.8992180" lon="23.9321862"><time>2026-09-07T08:15:55Z</time></trkpt>
      <trkpt lat="54.8992316" lon="23.9321392"><time>2026-09-07T08:16:00Z</time></trkpt>
      <trkpt lat="54.8992597" lon="23.9319964"><time>2026-09-07T08:16:05Z</time></trkpt>
      <trkpt lat="54.8992691" lon="23.9319116"><time>2026-09-07T08:16:10Z</time></trkpt>
      <trkpt lat="54.8993098" lon="23.9317888"><time>2026-09-07T08:16:15Z</time></trkpt>
      <trkpt lat="54.8993025" lon="23.9317440"><time>2026-09-07T08:16:20Z</time></trkpt>
      <trkpt lat="54.8993330" lon="23.9316805"><time>2026-09-07T08:16:25Z</time></trkpt>
      <trkpt lat="54.8993334" lon="23.9314452"><time>2026-09-07T08:16:30Z</time></trkpt>
      <trkpt lat="54.8993917" lon="23.9314396"><time>2026-09-07T08:16:35Z</time></trkpt>
      <trkpt lat="54.8993876" lon="23.9313038"><time>2026-09-07T08:16:40Z</time></trkpt>
      <trkpt lat="54.8993971" lon="23.9311668"><time>2026-09-07T08:16:45Z</time></trkpt>
      <trkpt lat="54.8994150" lon="23.9310820"><time>2026-09-07T08:16:50Z</time></trkpt>
      <trkpt lat="54.8994420" lon="23.9310709"><time>2026-09-07T08:16:55Z</time></trkpt>
      <trkpt lat="54.8994802" lon="23.9309412"><time>2026-09-07T08:17:00Z</time></trkpt>
      <trkpt lat="54.8994693" lon="23.9308815"><time>2026-09-07T08:17:05Z</time></trkpt>
      <trkpt lat="54.8995305" lon="23.9306939"><time>2026-09-07T08:17:10Z</time></trkpt>
      <trkpt lat="54.8995476" lon="23.9307102"><time>2026-09-07T08:17:15Z</time></trkpt>
      <trkpt lat="54.8995935" lon="23.9305672"><time>2026-09-07T08:17:20Z</time></trkpt>
      <trkpt lat="54.8995952" lon="23.9304853"><time>2026-09-07T08:17:25Z</time></trkpt>
      <trkpt lat="54.8996634" lon="23.9304439"><time>2026-09-07T08:17:30Z</time></trkpt>
      <trkpt lat="54.8997099" lon="23.9303020"><time>2026-09-07T08:17:35Z</time></trkpt>
      <trkpt lat="54.8997180" lon="23.9301998"><time>2026-09-07T08:17:40Z</time></trkpt>
      <trkpt lat="54.8997839" lon="23.9301549"><time>2026-09-07T08:17:45Z</time></trkpt>
      <trkpt lat="54.8997939" lon="23.9300660"><time>2026-09-07T08:17:50Z</time></trkpt>
      <trkpt lat="54.8998288" lon="23.9299896"><time>2026-09-07T08:17:55Z</time></trkpt>
      <trkpt lat="54.8999112" lon="23.9298758"><time>2026-09-07T08:18:00Z</time></trkpt>
      <trkpt lat="54.8999047" lon="23.9298025"><time>2026-09-07T08:18:05Z</time></trkpt>
      <trkpt lat="54.8999474" lon="23.9297116"><time>2026-09-07T08:18:10Z</time></trkpt>
      <trkpt lat="54.9000107" lon="23.9296028"><time>2026-09-07T08:18:15Z</time></trkpt>
      <trkpt lat="54.9000552" lon="23.9295598"><time>2026-09-07T08:18:20Z</time></trkpt>
      <trkpt lat="54.9000888" lon="23.9295098"><time>2026-09-07T08:18:25Z</time></trkpt>
      <trkpt lat="54.9001253" lon="23.9293974"><time>2026-09-07T08:18:30Z</time></trkpt>
      <trkpt lat="54.9001773" lon="23.9294346"><time>2026-09-07T08:18:35Z</time></trkpt>
      <trkpt lat="54.9002295" lon="23.9293196"><time>2026-09-07T08:18:40Z</time></trkpt>
      <trkpt lat="54.9002625" lon="23.9292125"><time>2026-09-07T08:18:45Z</time></trkpt>
      <trkpt lat="54.9003314" lon="23.9292190"><time>2026-09-07T08:18:50Z</time></trkpt>
      <trkpt lat="54.9004111" lon="23.9290569"><time>2026-09-07T08:18:55Z</time></trkpt>
      <trkpt lat="54.9004136" lon="23.9290250"><time>2026-09-07T08:19:00Z</time></trkpt>
      <trkpt lat="54.9004686" lon="23.9290041"><time>2026-09-07T08:19:05Z</time></trkpt>
      <trkpt lat="54.9005284" lon="23.9288948"><time>2026-09-07T08:19:10Z</time></trkpt>
      <trkpt lat="54.9005822" lon="23.9289014"><time>2026-09-07T08:19:15Z</time></trkpt>
      <trkpt lat="54.9006229" lon="23.9288016"><time>2026-09-07T08:19:20Z</time></trkpt>
      <trkpt lat="54.9006800" lon="23.9288093"><time>2026-09-07T08:19:25Z</time></trkpt>
      <trkpt lat="54.9007740" lon="23.9287473"><time>2026-09-07T08:19:30Z</time></trkpt>
      <trkpt lat="54.9008264" lon="23.9286621"><time>2026-09-07T08:19:35Z</time></trkpt>
      <trkpt lat="54.9008209" lon="23.9286207"><time>2026-09-07T08:19:40Z</time></trkpt>
      <trkpt lat="54.9008668" lon="23.9285523"><time>2026-09-07T08:19:45Z</time></trkpt>
      <trkpt lat="54.9009750" lon="23.9285001"><time>2026-09-07T08:19:50Z</time></trkpt>
      <trkpt lat="54.9010031" lon="23.9284697"><time>2026-09-07T08:19:55Z</time></trkpt>
      <trkpt lat="54.9010474" lon="23.9284060"><time>2026-09-07T08:20:00Z</time></trkpt>
      <trkpt lat="54.9010931" lon="23.9283353"><time>2026-09-07T08:20:05Z</time></trkpt>
      <trkpt lat="54.9011609" lon="23.9283269"><time>2026-09-07T08:20:10Z</time></trkpt>
      <trkpt lat="54.9012115" lon="23.9282971"><time>2026-09-07T08:20:15Z</time></trkpt>
      <trkpt lat="54.9012580" lon="23.9282165"><time>2026-09-07T08:20:20Z</time></trkpt>
      <trkpt lat="54.9013075" lon="23.9281618"><time>2026-09-07T08:20:25Z</time></trkpt>
      <trkpt lat="54.9013940" lon="23.9281372"><time>2026-09-07T08:20:30Z</time></trkpt>
      <trkpt lat="54.9014217" lon="23.9280542"><time>2026-09-07T08:20:35Z</time></trkpt>
      <trkpt lat="54.9014908" lon="23.9280176"><time>2026-09-07T08:20:40Z</time></trkpt>
      <trkpt lat="54.9015406" lon="23.9279110"><time>2026-09-07T08:20:45Z</time></trkpt>
      <trkpt lat="54.9015706" lon="23.9279461"><time>2026-09-07T08:20:50Z</time></trkpt>
      <trkpt lat="54.9016300" lon="23.9279061"><time>2026-09-07T08:20:55Z</time></trkpt>
      <trkpt lat="54.9017052" lon="23.9278593"><time>2026-09-07T08:21:00Z</time></trkpt>
      <trkpt lat="54.9017478" lon="23.9277481"><time>2026-09-07T08:21:05Z</time></trkpt>
      <trkpt lat="54.9018021" lon="23.9277653"><time>2026-09-07T08:21:10Z</time></trkpt>
      <trkpt lat="54.9018312" lon="23.9277185"><time>2026-09-07T08:21:15Z</time></trkpt>
      <trkpt lat="54.9019267" lon="23.9276137"><time>2026-09-07T08:21:20Z</time></trkpt>
      <trkpt lat="54.9019503" lon="23.9275647"><time>2026-09-07T08:21:25Z</time></trkpt>
      <trkpt lat="54.9020128" lon="23.9275413"><time>2026-09-07T08:21:30Z</time></trkpt>
      <trkpt lat="54.9020621" lon="23.9274982"><time>2026-09-07T08:21:35Z</time></trkpt>
      <trkpt lat="54.9021116" lon="23.9274355"><time>2026-09-07T08:21:40Z</time></trkpt>
      <trkpt lat="54.9021707" lon="23.9273319"><time>2026-09-07T08:21:45Z</time></trkpt>
      <trkpt lat="54.9022303" lon="23.9272962"><time>2026-09-07T08:21:50Z</time></trkpt>
      <trkpt lat="54.9022915" lon="23.9272153"><time>2026-09-07T08:21:55Z</time></trkpt>
      <trkpt lat="54.9023383" lon="23.9272258"><time>2026-09-07T08:22:00Z</time></trkpt>
      <trkpt lat="54.9023707" lon="23.9271247"><time>2026-09-07T08:22:05Z</time></trkpt>
      <trkpt lat="54.9024061" lon="23.9271266"><time>2026-09-07T08:22:10Z</time></trkpt>
      <trkpt lat="54.9024611" lon="23.9270316"><time>2026-09-07T08:22:15Z</time></trkpt>
      <trkpt lat="54.9025246" lon="23.9270122"><time>2026-09-07T08:22:20Z</time></trkpt>
      <trkpt lat="54.9025999" lon="23.9269392"><time>2026-09-07T08:22:25Z</time></trkpt>
      <trkpt lat="54.9026566" lon="23.9268671"><time>2026-09-07T08:22:30Z</time></trkpt>
      <trkpt lat="54.9026708" lon="23.9268157"><time>2026-09-07T08:22:35Z</time></trkpt>
      <trkpt lat="54.9027398" lon="23.9267421"><time>2026-09-07T08:22:40Z</time></trkpt>
      <trkpt lat="54.9027463" lon="23.9267082"><time>2026-09-07T08:22:45Z</time></trkpt>
      <trkpt lat="54.9028346" lon="23.9266693"><time>2026-09-07T08:22:50Z</time></trkpt>
      <trkpt lat="54.9028957" lon="23.9265962"><time>2026-09-07T08:22:55Z</time></trkpt>
      <trkpt lat="54.9029884" lon="23.9265568"><time>2026-09-07T08:23:00Z</time></trkpt>
      <trkpt lat="54.9029825" lon="23.9265465"><time>2026-09-07T08:23:05Z</time></trkpt>
      <trkpt lat="54.9030595" lon="23.9264495"><time>2026-09-07T08:23:10Z</time></trkpt>
      <trkpt lat="54.9031082" lon="23.9263929"><time>2026-09-07T08:23:15Z</time></trkpt>
      <trkpt lat="54.9031376" lon="23.9263182"><time>2026-09-07T08:23:20Z</time></trkpt>
      <trkpt lat="54.9032204" lon="23.9262875"><time>2026-09-07T08:23:25Z</time></trkpt>
      <trkpt lat="54.9032670" lon="23.9262255"><time>2026-09-07T08:23:30Z</time></trkpt>
      <trkpt lat="54.9033495" lon="23.9262359"><time>2026-09-07T08:23:35Z</time></trkpt>
      <trkpt lat="54.9034009" lon="23.9261393"><time>2026-09-07T08:23:40Z</time></trkpt>
      <trkpt lat="54.9034562" lon="23.9260727"><time>2026-09-07T08:23:45Z</time></trkpt>
      <trkpt lat="54.9034952" lon="23.9260463"><time>2026-09-07T08:23:50Z</time></trkpt>
      <trkpt lat="54.9035292" lon="23.9259965"><time>2026-09-07T08:23:55Z</time></trkpt>
      <trkpt lat="54.9035899" lon="23.9259790"><time>2026-09-07T08:24:00Z</time></trkpt>
      <trkpt lat="54.9036534" lon="23.9259101"><time>2026-09-07T08:24:05Z</time></trkpt>
      <trkpt lat="54.9037102" lon="23.9258598"><time>2026-09-07T08:24:10Z</time></trkpt>
      <trkpt lat="54.9037780" lon="23.9259214"><time>2026-09-07T08:24:15Z</time></trkpt>
      <trkpt lat="54.9038142" lon="23.9258040"><time>2026-09-07T08:24:20Z</time></trkpt>
      <trkpt lat="54.9039169" lon="23.9257940"><time>2026-09-07T08:24:25Z</time></trkpt>
      <trkpt lat="54.9039330" lon="23.9257300"><time>2026-09-07T08:24:30Z</time></trkpt>
      <trkpt lat="54.9039912" lon="23.9257478"><time>2026-09-07T08:24:35Z</time></trkpt>
      <trkpt lat="54.9040698" lon="23.9257047"><time>2026-09-07T08:24:40Z</time></trkpt>
      <trkpt lat="54.9040930" lon="23.9256762"><time>2026-09-07T08:24:45Z</time></trkpt>
      <trkpt lat="54.9041604" lon="23.9256248"><time>2026-09-07T08:24:50Z</time></trkpt>
      <trkpt lat="54.9042478" lon="23.9256351"><time>2026-09-07T08:24:55Z</time></trkpt>
      <trkpt lat="54.9042705" lon="23.9256087"><time>2026-09-07T08:25:00Z</time></trkpt>
      <trkpt lat="54.9043590" lon="23.9256168"><time>2026-09-07T08:25:05Z</time></trkpt>
      <trkpt lat="54.9044229" lon="23.9255541"><time>2026-09-07T08:25:10Z</time></trkpt>
      <trkpt lat="54.9044674" lon="23.9256450"><time>2026-09-07T08:25:15Z</time></trkpt>
      <trkpt lat="54.9045649" lon="23.9255269"><time>2026-09-07T08:25:20Z</time></trkpt>
      <trkpt lat="54.9046117" lon="23.9255459"><time>2026-09-07T08:25:25Z</time></trkpt>
      <trkpt lat="54.9046282" lon="23.9255468"><time>2026-09-07T08:25:30Z</time></trkpt>
      <trkpt lat="54.9046911" lon="23.9255312"><time>2026-09-07T08:25:35Z</time></trkpt>
      <trkpt lat="54.9047409" lon="23.9254733"><time>2026-09-07T08:25:40Z</time></trkpt>
      <trkpt lat="54.9048585" lon="23.9255247"><time>2026-09-07T08:25:45Z</time></trkpt>
      <trkpt lat="54.9048569" lon="23.9255480"><time>2026-09-07T08:25:50Z</time></trkpt>
      <trkpt lat="54.9049523" lon="23.9255714"><time>2026-09-07T08:25:55Z</time></trkpt>
      <trkpt lat="54.9049807" lon="23.9256004"><time>2026-09-07T08:26:00Z</time></trkpt>
      <trkpt lat="54.9050843" lon="23.9256371"><time>2026-09-07T08:26:05Z</time></trkpt>
      <trkpt lat="54.9051115" lon="23.9256361"><time>2026-09-07T08:26:10Z</time></trkpt>
      <trkpt lat="54.9051867" lon="23.9256676"><time>2026-09-07T08:26:15Z</time></trkpt>
      <trkpt lat="54.9052410" lon="23.9256507"><time>2026-09-07T08:26:20Z</time></trkpt>
      <trkpt lat="54.9053080" lon="23.9256569"><time>2026-09-07T08:26:25Z</time></trkpt>
      <trkpt lat="54.9053887" lon="23.9256684"><time>2026-09-07T08:26:30Z</time></trkpt>
      <trkpt lat="54.9054485" lon="23.9257799"><time>2026-09-07T08:26:35Z</time></trkpt>
      <trkpt lat="54.9055237" lon="23.9257874"><time>2026-09-07T08:26:40Z</time></trkpt>
      <trkpt lat="54.9055893" lon="23.9257587"><time>2026-09-07T08:26:45Z</time></trkpt>
      <trkpt lat="54.9055959" lon="23.9257875"><time>2026-09-07T08:26:50Z</time></trkpt>
      <trkpt lat="54.9056349" lon="23.9257737"><time>2026-09-07T08:26:55Z</time></trkpt>
      <trkpt lat="54.9057114" lon="23.9259345"><time>2026-09-07T08:27:00Z</time></trkpt>
      <trkpt lat="54.9057640" lon="23.9259137"><time>2026-09-07T08:27:05Z</time></trkpt>
      <trkpt lat="54.9058221" lon="23.9259968"><time>2026-09-07T08:27:10Z</time></trkpt>
      <trkpt lat="54.9058767" lon="23.9260492"><time>2026-09-07T08:27:15Z</time></trkpt>
      <trkpt lat="54.9059127" lon="23.9261023"><time>2026-09-07T08:27:20Z</time></trkpt>
      <trkpt lat="54.9059624" lon="23.9261862"><time>2026-09-07T08:27:25Z</time></trkpt>
      <trkpt lat="54.9060317" lon="23.9262286"><time>2026-09-07T08:27:30Z</time></trkpt>
      <trkpt lat="54.9060827" lon="23.9262639"><time>2026-09-07T08:27:35Z</time></trkpt>
      <trkpt lat="54.9061386" lon="23.9262935"><time>2026-09-07T08:27:40Z</time></trkpt>
      <trkpt lat="54.9062061" lon="23.9263524"><time>2026-09-07T08:27:45Z</time></trkpt>
      <trkpt lat="54.9062334" lon="23.9264215"><time>2026-09-07T08:27:50Z</time></trkpt>
      <trkpt lat="54.9062935" lon="23.9265126"><time>2026-09-07T08:27:55Z</time></trkpt>
      <trkpt lat="54.9062919" lon="23.9266095"><time>2026-09-07T08:28:00Z</time></trkpt>
      <trkpt lat="54.9063338" lon="23.9266608"><time>2026-09-07T08:28:05Z</time></trkpt>
      <trkpt lat="54.9064019" lon="23.9266307"><time>2026-09-07T08:28:10Z</time></trkpt>
      <trkpt lat="54.9064231" lon="23.9267828"><time>2026-09-07T08:28:15Z</time></trkpt>
      <trkpt lat="54.9064683" lon="23.9268862"><time>2026-09-07T08:28:20Z</time></trkpt>
      <trkpt lat="54.9064918" lon="23.9269415"><time>2026-09-07T08:28:25Z</time></trkpt>
      <trkpt lat="54.9065512" lon="23.9270177"><time>2026-09-07T08:28:30Z</time></trkpt>
      <trkpt lat="54.9066017" lon="23.9271315"><time>2026-09-07T08:28:35Z</time></trkpt>
      <trkpt lat="54.9066666" lon="23.9271851"><time>2026-09-07T08:28:40Z</time></trkpt>
      <trkpt lat="54.9066596" lon="23.9272060"><time>2026-09-07T08:28:45Z</time></trkpt>
      <trkpt lat="54.9067123" lon="23.9273445"><time>2026-09-07T08:28:50Z</time></trkpt>
      <trkpt lat="54.9067441" lon="23.9274504"><time>2026-09-07T08:28:55Z</time></trkpt>
      <trkpt lat="54.9067976" lon="23.9275612"><time>2026-09-07T08:29:00Z</time></trkpt>
      <trkpt lat="54.9067699" lon="23.9277015"><time>2026-09-07T08:29:05Z</time></trkpt>
      <trkpt lat="54.9068232" lon="23.9277661"><time>2026-09-07T08:29:10Z</time></trkpt>
      <trkpt lat="54.9068723" lon="23.9277620"><time>2026-09-07T08:29:15Z</time></trkpt>
      <trkpt lat="54.9068565" lon="23.9279197"><time>2026-09-07T08:29:20Z</time></trkpt>
      <trkpt lat="54.9069386" lon="23.9280428"><time>2026-09-07T08:29:25Z</time></trkpt>
      <trkpt lat="54.9069364" lon="23.9280720"><time>2026-09-07T08:29:30Z</time></trkpt>
      <trkpt lat="54.9069667" lon="23.9281760"><time>2026-09-07T08:29:35Z</time></trkpt>
      <trkpt lat="54.9070202" lon="23.9283141"><time>2026-09-07T08:29:40Z</time></trkpt>
      <trkpt lat="54.9070184" lon="23.9284283"><time>2026-09-07T08:29:45Z</time></trkpt>
      <trkpt lat="54.9070155" lon="23.9284655"><time>2026-09-07T08:29:50Z</time></trkpt>
      <trkpt lat="54.9070494" lon="23.9285482"><time>2026-09-07T08:29:55Z</time></trkpt>
      <trkpt lat="54.9070692" lon="23.9287008"><time>2026-09-07T08:30:00Z</time></trkpt>
      <trkpt lat="54.9071229" lon="23.9288753"><time>2026-09-07T08:30:05Z</time></trkpt>
      <trkpt lat="54.9071150" lon="23.9289319"><time>2026-09-07T08:30:10Z</time></trkpt>
      <trkpt lat="54.9071585" lon="23.9289540"><time>2026-09-07T08:30:15Z</time></trkpt>
      <trkpt lat="54.9071036" lon="23.9291053"><time>2026-09-07T08:30:20Z</time></trkpt>
      <trkpt lat="54.9071378" lon="23.9291408"><time>2026-09-07T08:30:25Z</time></trkpt>
      <trkpt lat="54.9071815" lon="23.9293400"><time>2026-09-07T08:30:30Z</time></trkpt>
      <trkpt lat="54.9071651" lon="23.9293699"><time>2026-09-07T08:30:35Z</time></trkpt>
      <trkpt lat="54.9071919" lon="23.9295312"><time>2026-09-07T08:30:40Z</time></trkpt>
      <trkpt lat="54.9071775" lon="23.9296494"><time>2026-09-07T08:30:45Z</time></trkpt>
      <trkpt lat="54.9071978" lon="23.9297983"><time>2026-09-07T08:30:50Z</time></trkpt>
      <trkpt lat="54.9072303" lon="23.9298672"><time>2026-09-07T08:30:55Z</time></trkpt>
      <trkpt lat="54.9072137" lon="23.9299454"><time>2026-09-07T08:31:00Z</time></trkpt>
      <trkpt lat="54.9072094" lon="23.9300845"><time>2026-09-07T08:31:05Z</time></trkpt>
      <trkpt lat="54.9072248" lon="23.9301261"><time>2026-09-07T08:31:10Z</time></trkpt>
      <trkpt lat="54.9072260" lon="23.9302244"><time>2026-09-07T08:31:15Z</time></trkpt>
      <trkpt lat="54.9072428" lon="23.9303867"><time>2026-09-07T08:31:20Z</time></trkpt>
      <trkpt lat="54.9072377" lon="23.9304281"><time>2026-09-07T08:31:25Z</time></trkpt>
      <trkpt lat="54.9072188" lon="23.9305266"><time>2026-09-07T08:31:30Z</time></trkpt>
      <trkpt lat="54.9072561" lon="23.9306697"><time>2026-09-07T08:31:35Z</time></trkpt>
      <trkpt lat="54.9072342" lon="23.9307657"><time>2026-09-07T08:31:40Z</time></trkpt>
      <trkpt lat="54.9072544" lon="23.9308736"><time>2026-09-07T08:31:45Z</time></trkpt>
      <trkpt lat="54.9072386" lon="23.9309949"><time>2026-09-07T08:31:50Z</time></trkpt>
      <trkpt lat="54.9072089" lon="23.9311084"><time>2026-09-07T08:31:55Z</time></trkpt>
      <trkpt lat="54.9072273" lon="23.9312149"><time>2026-09-07T08:32:00Z</time></trkpt>
      <trkpt lat="54.9072120" lon="23.9312743"><time>2026-09-07T08:32:05Z</time></trkpt>
      <trkpt lat="54.9072168" lon="23.9314379"><time>2026-09-07T08:32:10Z</time></trkpt>
      <trkpt lat="54.9072304" lon="23.9314740"><time>2026-09-07T08:32:15Z</time></trkpt>
      <trkpt lat="54.9072031" lon="23.9317033"><time>2026-09-07T08:32:20Z</time></trkpt>
      <trkpt lat="54.9072078" lon="23.9317174"><time>2026-09-07T08:32:25Z</time></trkpt>
      <trkpt lat="54.9072098" lon="23.9318816"><time>2026-09-07T08:32:30Z</time></trkpt>
      <trkpt lat="54.9071820" lon="23.9319553"><time>2026-09-07T08:32:35Z</time></trkpt>
    </trkseg>
  </trk>
</gpx>
