<?xml version="1.0" encoding="UTF-8"?>
<gpx version="1.1" creator="@nature/walk-sim samples:generate (seed 20260907)" xmlns="http://www.topografix.com/GPX/1/1" xmlns:ne="https://natureexplorer.app/gpx/walk-sim/1">
  <metadata>
    <name>laisves-aleja-straight</name>
    <desc>About 1.6 km walk along Laisvės alėja from 54.8964 N, 23.9040 E to 54.8976 N, 23.9290 E at 1.4 m/s with ±1 m jitter; expected: no flags, at least 5 res-9 cells</desc>
  </metadata>
  <trk>
    <name>laisves-aleja-straight</name>
    <trkseg>
      <trkpt lat="54.8963900" lon="23.9040210"><time>2026-09-07T08:00:00Z</time></trkpt>
      <trkpt lat="54.8964137" lon="23.9041385"><time>2026-09-07T08:00:05Z</time></trkpt>
      <trkpt lat="54.8964142" lon="23.9042292"><time>2026-09-07T08:00:10Z</time></trkpt>
      <trkpt lat="54.8964095" lon="23.9043305"><time>2026-09-07T08:00:15Z</time></trkpt>
      <trkpt lat="54.8964184" lon="23.9044016"><time>2026-09-07T08:00:20Z</time></trkpt>
      <trkpt lat="54.8964118" lon="23.9045705"><time>2026-09-07T08:00:25Z</time></trkpt>
      <trkpt lat="54.8964242" lon="23.9046387"><time>2026-09-07T08:00:30Z</time></trkpt>
      <trkpt lat="54.8964162" lon="23.9047987"><time>2026-09-07T08:00:35Z</time></trkpt>
      <trkpt lat="54.8964303" lon="23.9048507"><time>2026-09-07T08:00:40Z</time></trkpt>
      <trkpt lat="54.8964341" lon="23.9049773"><time>2026-09-07T08:00:45Z</time></trkpt>
      <trkpt lat="54.8964433" lon="23.9050937"><time>2026-09-07T08:00:50Z</time></trkpt>
      <trkpt lat="54.8964395" lon="23.9051805"><time>2026-09-07T08:00:55Z</time></trkpt>
      <trkpt lat="54.8964505" lon="23.9053073"><time>2026-09-07T08:01:00Z</time></trkpt>
      <trkpt lat="54.8964531" lon="23.9053715"><time>2026-09-07T08:01:05Z</time></trkpt>
      <trkpt lat="54.8964598" lon="23.9055377"><time>2026-09-07T08:01:10Z</time></trkpt>
      <trkpt lat="54.8964690" lon="23.9056579"><time>2026-09-07T08:01:15Z</time></trkpt>
      <trkpt lat="54.8964514" lon="23.9057265"><time>2026-09-07T08:01:20Z</time></trkpt>
      <trkpt lat="54.8964775" lon="23.9058736"><time>2026-09-07T08:01:25Z</time></trkpt>
      <trkpt lat="54.8964792" lon="23.9059486"><time>2026-09-07T08:01:30Z</time></trkpt>
      <trkpt lat="54.8964734" lon="23.9060602"><time>2026-09-07T08:01:35Z</time></trkpt>
      <trkpt lat="54.8964875" lon="23.9062225"><time>2026-09-07T08:01:40Z</time></trkpt>
      <trkpt lat="54.8964849" lon="23.9062955"><time>2026-09-07T08:01:45Z</time></trkpt>
      <trkpt lat="54.8964885" lon="23.9064020"><time>2026-09-07T08:01:50Z</time></trkpt>
      <trkpt lat="54.8964923" lon="23.9065120"><time>2026-09-07T08:01:55Z</time></trkpt>
      <trkpt lat="54.8965034" lon="23.9066096"><time>2026-09-07T08:02:00Z</time></trkpt>
      <trkpt lat="54.8965161" lon="23.9067162"><time>2026-09-07T08:02:05Z</time></trkpt>
      <trkpt lat="54.8965105" lon="23.9068145"><time>2026-09-07T08:02:10Z</time></trkpt>
      <trkpt lat="54.8965184" lon="23.9069724"><time>2026-09-07T08:02:15Z</time></trkpt>
      <trkpt lat="54.8965331" lon="23.9070577"><time>2026-09-07T08:02:20Z</time></trkpt>
      <trkpt lat="54.8965283" lon="23.9071740"><time>2026-09-07T08:02:25Z</time></trkpt>
      <trkpt lat="54.8965261" lon="23.9072701"><time>2026-09-07T08:02:30Z</time></trkpt>
      <trkpt lat="54.8965337" lon="23.9073754"><time>2026-09-07T08:02:35Z</time></trkpt>
      <trkpt lat="54.8965296" lon="23.9074916"><time>2026-09-07T08:02:40Z</time></trkpt>
      <trkpt lat="54.8965554" lon="23.9075941"><time>2026-09-07T08:02:45Z</time></trkpt>
      <trkpt lat="54.8965462" lon="23.9077183"><time>2026-09-07T08:02:50Z</time></trkpt>
      <trkpt lat="54.8965764" lon="23.9078438"><time>2026-09-07T08:02:55Z</time></trkpt>
      <trkpt lat="54.8965788" lon="23.9079135"><time>2026-09-07T08:03:00Z</time></trkpt>
      <trkpt lat="54.8965789" lon="23.9080447"><time>2026-09-07T08:03:05Z</time></trkpt>
      <trkpt lat="54.8965892" lon="23.9081332"><time>2026-09-07T08:03:10Z</time></trkpt>
      <trkpt lat="54.8965924" lon="23.9082494"><time>2026-09-07T08:03:15Z</time></trkpt>
      <trkpt lat="54.8966037" lon="23.9083728"><time>2026-09-07T08:03:20Z</time></trkpt>
      <trkpt lat="54.8965943" lon="23.9085029"><time>2026-09-07T08:03:25Z</time></trkpt>
      <trkpt lat="54.8965791" lon="23.9085835"><time>2026-09-07T08:03:30Z</time></trkpt>
      <trkpt lat="54.8966036" lon="23.9086716"><time>2026-09-07T08:03:35Z</time></trkpt>
      <trkpt lat="54.8966172" lon="23.9087760"><time>2026-09-07T08:03:40Z</time></trkpt>
      <trkpt lat="54.8966101" lon="23.9089169"><time>2026-09-07T08:03:45Z</time></trkpt>
      <trkpt lat="54.8966350" lon="23.9090285"><time>2026-09-07T08:03:50Z</time></trkpt>
      <trkpt lat="54.8966322" lon="23.9091109"><time>2026-09-07T08:03:55Z</time></trkpt>
      <trkpt lat="54.8966327" lon="23.9092294"><time>2026-09-07T08:04:00Z</time></trkpt>
      <trkpt lat="54.8966522" lon="23.9093198"><time>2026-09-07T08:04:05Z</time></trkpt>
      <trkpt lat="54.8966584" lon="23.9094489"><time>2026-09-07T08:04:10Z</time></trkpt>
      <trkpt lat="54.8966545" lon="23.9095663"><time>2026-09-07T08:04:15Z</time></trkpt>
      <trkpt lat="54.8966632" lon="23.9096724"><time>2026-09-07T08:04:20Z</time></trkpt>
      <trkpt lat="54.8966667" lon="23.9097561"><time>2026-09-07T08:04:25Z</time></trkpt>
      <trkpt lat="54.8966986" lon="23.9099105"><time>2026-09-07T08:04:30Z</time></trkpt>
      <trkpt lat="54.8966753" lon="23.9099730"><time>2026-09-07T08:04:35Z</time></trkpt>
      <trkpt lat="54.8966909" lon="23.9101310"><time>2026-09-07T08:04:40Z</time></trkpt>
      <trkpt lat="54.8966866" lon="23.9102245"><time>2026-09-07T08:04:45Z</time></trkpt>
      <trkpt lat="54.8967045" lon="23.9103185"><time>2026-09-07T08:04:50Z</time></trkpt>
      <trkpt lat="54.8967138" lon="23.9104424"><time>2026-09-07T08:04:55Z</time></trkpt>
      <trkpt lat="54.8966977" lon="23.9105431"><time>2026-09-07T08:05:00Z</time></trkpt>
      <trkpt lat="54.8967120" lon="23.9106610"><time>2026-09-07T08:05:05Z</time></trkpt>
      <trkpt lat="54.8967227" lon="23.9107588"><time>2026-09-07T08:05:10Z</time></trkpt>
      <trkpt lat="54.8967223" lon="23.9108551"><time>2026-09-07T08:05:15Z</time></trkpt>
      <trkpt lat="54.8967466" lon="23.9110075"><time>2026-09-07T08:05:20Z</time></trkpt>
      <trkpt lat="54.8967240" lon="23.9110990"><time>2026-09-07T08:05:25Z</time></trkpt>
      <trkpt lat="54.8967483" lon="23.9112094"><time>2026-09-07T08:05:30Z</time></trkpt>
      <trkpt lat="54.8967413" lon="23.9113201"><time>2026-09-07T08:05:35Z</time></trkpt>
      <trkpt lat="54.8967724" lon="23.9114004"><time>2026-09-07T08:05:40Z</time></trkpt>
      <trkpt lat="54.8967607" lon="23.9115284"><time>2026-09-07T08:05:45Z</time></trkpt>
      <trkpt lat="54.8967586" lon="23.9116613"><time>2026-09-07T08:05:50Z</time></trkpt>
      <trkpt lat="54.8967836" lon="23.9117599"><time>2026-09-07T08:05:55Z</time></trkpt>
      <trkpt lat="54.8967872" lon="23.9118697"><time>2026-09-07T08:06:00Z</time></trkpt>
      <trkpt lat="54.8967920" lon="23.9120013"><time>2026-09-07T08:06:05Z</time></trkpt>
      <trkpt lat="54.8967909" lon="23.9120770"><time>2026-09-07T08:06:10Z</time></trkpt>
      <trkpt lat="54.8967938" lon="23.9121630"><time>2026-09-07T08:06:15Z</time></trkpt>
      <trkpt lat="54.8968094" lon="23.9122884"><time>2026-09-07T08:06:20Z</time></trkpt>
      <trkpt lat="54.8968059" lon="23.9123699"><time>2026-09-07T08:06:25Z</time></trkpt>
      <trkpt lat="54.8968046" lon="23.9125288"><time>2026-09-07T08:06:30Z</time></trkpt>
      <trkpt lat="54.8968115" lon="23.9126024"><time>2026-09-07T08:06:35Z</time></trkpt>
      <trkpt lat="54.8968102" lon="23.9127205"><time>2026-09-07T08:06:40Z</time></trkpt>
      <trkpt lat="54.8968294" lon="23.9128254"><time>2026-09-07T08:06:45Z</time></trkpt>
      <trkpt lat="54.8968353" lon="23.9129621"><time>2026-09-07T08:06:50Z</time></trkpt>
      <trkpt lat="54.8968255" lon="23.9130376"><time>2026-09-07T08:06:55Z</time></trkpt>
      <trkpt lat="54.8968241" lon="23.9131646"><time>2026-09-07T08:07:00Z</time></trkpt>
      <trkpt lat="54.8968348" lon="23.9132963"><time>2026-09-07T08:07:05Z</time></trkpt>
      <trkpt lat="54.8968525" lon="23.9133735"><time>2026-09-07T08:07:10Z</time></trkpt>
      <trkpt lat="54.8968551" lon="23.9134882"><time>2026-09-07T08:07:15Z</time></trkpt>
      <trkpt lat="54.8968501" lon="23.9136028"><time>2026-09-07T08:07:20Z</time></trkpt>
      <trkpt lat="54.8968679" lon="23.9137077"><time>2026-09-07T08:07:25Z</time></trkpt>
      <trkpt lat="54.8968773" lon="23.9137948"><time>2026-09-07T08:07:30Z</time></trkpt>
      <trkpt lat="54.8968791" lon="23.9139096"><time>2026-09-07T08:07:35Z</time></trkpt>
      <trkpt lat="54.8968929" lon="23.9140327"><time>2026-09-07T08:07:40Z</time></trkpt>
      <trkpt lat="54.8968947" lon="23.9141246"><time>2026-09-07T08:07:45Z</time></trkpt>
      <trkpt lat="54.8969034" lon="23.9142785"><time>2026-09-07T08:07:50Z</time></trkpt>
      <trkpt lat="54.8969038" lon="23.9143486"><time>2026-09-07T08:07:55Z</time></trkpt>
      <trkpt lat="54.8969131" lon="23.9144870"><time>2026-09-07T08:08:00Z</time></trkpt>
      <trkpt lat="54.8969096" lon="23.9145771"><time>2026-09-07T08:08:05Z</time></trkpt>
      <trkpt lat="54.8969209" lon="23.9146922"><time>2026-09-07T08:08:10Z</time></trkpt>
      <trkpt lat="54.8969144" lon="23.9147992"><time>2026-09-07T08:08:15Z</time></trkpt>
      <trkpt lat="54.8969305" lon="23.9148950"><time>2026-09-07T08:08:20Z</time></trkpt>
      <trkpt lat="54.8969423" lon="23.9150182"><time>2026-09-07T08:08:25Z</time></trkpt>
      <trkpt lat="54.8969335" lon="23.9151195"><time>2026-09-07T08:08:30Z</time></trkpt>
      <trkpt lat="54.8969620" lon="23.9152084"><time>2026-09-07T08:08:35Z</time></trkpt>
      <trkpt lat="54.8969581" lon="23.9153286"><time>2026-09-07T08:08:40Z</time></trkpt>
      <trkpt lat="54.8969628" lon="23.9154411"><time>2026-09-07T08:08:45Z</time></trkpt>
      <trkpt lat="54.8969462" lon="23.9155794"><time>2026-09-07T08:08:50Z</time></trkpt>
      <trkpt lat="54.8969742" lon="23.9156879"><time>2026-09-07T08:08:55Z</time></trkpt>
      <trkpt lat="54.8969808" lon="23.9157881"><time>2026-09-07T08:09:00Z</time></trkpt>
      <trkpt lat="54.8969773" lon="23.9158916"><time>2026-09-07T08:09:05Z</time></trkpt>
      <trkpt lat="54.8969793" lon="23.9159902"><time>2026-09-07T08:09:10Z</time></trkpt>
      <trkpt lat="54.8969916" lon="23.9160890"><time>2026-09-07T08:09:15Z</time></trkpt>
      <trkpt lat="54.8969849" lon="23.9162359"><time>2026-09-07T08:09:20Z</time></trkpt>
      <trkpt lat="54.8969868" lon="23.9163025"><time>2026-09-07T08:09:25Z</time></trkpt>
      <trkpt lat="54.8970147" lon="23.9164577"><time>2026-09-07T08:09:30Z</time></trkpt>
      <trkpt lat="54.8970187" lon="23.9165326"><time>2026-09-07T08:09:35Z</time></trkpt>
      <trkpt lat="54.8970062" lon="23.9166692"><time>2026-09-07T08:09:40Z</time></trkpt>
      <trkpt lat="54.8970343" lon="23.9167548"><time>2026-09-07T08:09:45Z</time></trkpt>
      <trkpt lat="54.8970207" lon="23.9168682"><time>2026-09-07T08:09:50Z</time></trkpt>
      <trkpt lat="54.8970510" lon="23.9169754"><time>2026-09-07T08:09:55Z</time></trkpt>
      <trkpt lat="54.8970283" lon="23.9170934"><time>2026-09-07T08:10:00Z</time></trkpt>
      <trkpt lat="54.8970375" lon="23.9171866"><time>2026-09-07T08:10:05Z</time></trkpt>
      <trkpt lat="54.8970430" lon="23.9173076"><time>2026-09-07T08:10:10Z</time></trkpt>
      <trkpt lat="54.8970527" lon="23.9174211"><time>2026-09-07T08:10:15Z</time></trkpt>
      <trkpt lat="54.8970582" lon="23.9175367"><time>2026-09-07T08:10:20Z</time></trkpt>
      <trkpt lat="54.8970629" lon="23.9176401"><time>2026-09-07T08:10:25Z</time></trkpt>
      <trkpt lat="54.8970702" lon="23.9177510"><time>2026-09-07T08:10:30Z</time></trkpt>
      <trkpt lat="54.8970582" lon="23.9178571"><time>2026-09-07T08:10:35Z</time></trkpt>
      <trkpt lat="54.8970662" lon="23.9179725"><time>2026-09-07T08:10:40Z</time></trkpt>
      <trkpt lat="54.8970790" lon="23.9180834"><time>2026-09-07T08:10:45Z</time></trkpt>
      <trkpt lat="54.8970876" lon="23.9181484"><time>2026-09-07T08:10:50Z</time></trkpt>
      <trkpt lat="54.8970857" lon="23.9182638"><time>2026-09-07T08:10:55Z</time></trkpt>
      <trkpt lat="54.8970848" lon="23.9183928"><time>2026-09-07T08:11:00Z</time></trkpt>
      <trkpt lat="54.8970934" lon="23.9184896"><time>2026-09-07T08:11:05Z</time></trkpt>
      <trkpt lat="54.8971158" lon="23.9186204"><time>2026-09-07T08:11:10Z</time></trkpt>
      <trkpt lat="54.8971048" lon="23.9187092"><time>2026-09-07T08:11:15Z</time></trkpt>
      <trkpt lat="54.8971323" lon="23.9188354"><time>2026-09-07T08:11:20Z</time></trkpt>
      <trkpt lat="54.8971102" lon="23.9189260"><time>2026-09-07T08:11:25Z</time></trkpt>
      <trkpt lat="54.8971234" lon="23.9190903"><time>2026-09-07T08:11:30Z</time></trkpt>
      <trkpt lat="54.8971280" lon="23.9191428"><time>2026-09-07T08:11:35Z</time></trkpt>
      <trkpt lat="54.8971336" lon="23.9192712"><time>2026-09-07T08:11:40Z</time></trkpt>
      <trkpt lat="54.8971431" lon="23.9193850"><time>2026-09-07T08:11:45Z</time></trkpt>
      <trkpt lat="54.8971519" lon="23.9194961"><time>2026-09-07T08:11:50Z</time></trkpt>
      <trkpt lat="54.8971491" lon="23.9195983"><time>2026-09-07T08:11:55Z</time></trkpt>
      <trkpt lat="54.8971633" lon="23.9197262"><time>2026-09-07T08:12:00Z</time></trkpt>
      <trkpt lat="54.8971474" lon="23.9198058"><time>2026-09-07T08:12:05Z</time></trkpt>
      <trkpt lat="54.8971586" lon="23.9199393"><time>2026-09-07T08:12:10Z</time></trkpt>
      <trkpt lat="54.8971724" lon="23.9200063"><time>2026-09-07T08:12:15Z</time></trkpt>
      <trkpt lat="54.8971689" lon="23.9201510"><time>2026-09-07T08:12:20Z</time></trkpt>
      <trkpt lat="54.8971721" lon="23.9202529"><time>2026-09-07T08:12:25Z</time></trkpt>
      <trkpt lat="54.8971846" lon="23.9203571"><time>2026-09-07T08:12:30Z</time></trkpt>
      <trkpt lat="54.8971707" lon="23.9204661"><time>2026-09-07T08:12:35Z</time></trkpt>
      <trkpt lat="54.8972023" lon="23.9205787"><time>2026-09-07T08:12:40Z</time></trkpt>
      <trkpt lat="54.8972001" lon="23.9206943"><time>2026-09-07T08:12:45Z</time></trkpt>
      <trkpt lat="54.8972008" lon="23.9208024"><time>2026-09-07T08:12:50Z</time></trkpt>
      <trkpt lat="54.8972155" lon="23.9208943"><time>2026-09-07T08:12:55Z</time></trkpt>
      <trkpt lat="54.8972255" lon="23.9210499"><time>2026-09-07T08:13:00Z</time></trkpt>
      <trkpt lat="54.8972064" lon="23.9211308"><time>2026-09-07T08:13:05Z</time></trkpt>
      <trkpt lat="54.8972216" lon="23.9212784"><time>2026-09-07T08:13:10Z</time></trkpt>
      <trkpt lat="54.8972379" lon="23.9213425"><time>2026-09-07T08:13:15Z</time></trkpt>
      <trkpt lat="54.8972276" lon="23.9214663"><time>2026-09-07T08:13:20Z</time></trkpt>
      <trkpt lat="54.8972514" lon="23.9215582"><time>2026-09-07T08:13:25Z</time></trkpt>
      <trkpt lat="54.8972463" lon="23.9216692"><time>2026-09-07T08:13:30Z</time></trkpt>
      <trkpt lat="54.8972462" lon="23.9217751"><time>2026-09-07T08:13:35Z</time></trkpt>
      <trkpt lat="54.8972392" lon="23.9219043"><time>2026-09-07T08:13:40Z</time></trkpt>
      <trkpt lat="54.8972629" lon="23.9220160"><time>2026-09-07T08:13:45Z</time></trkpt>
      <trkpt lat="54.8972749" lon="23.9221151"><time>2026-09-07T08:13:50Z</time></trkpt>
      <trkpt lat="54.8972726" lon="23.9221985"><time>2026-09-07T08:13:55Z</time></trkpt>
      <trkpt lat="54.8972708" lon="23.9223356"><time>2026-09-07T08:14:00Z</time></trkpt>
      <trkpt lat="54.8972738" lon="23.9224446"><time>2026-09-07T08:14:05Z</time></trkpt>
      <trkpt lat="54.8972839" lon="23.9225643"><time>2026-09-07T08:14:10Z</time></trkpt>
      <trkpt lat="54.8972920" lon="23.9226606"><time>2026-09-07T08:14:15Z</time></trkpt>
      <trkpt lat="54.8972797" lon="23.9227520"><time>2026-09-07T08:14:20Z</time></trkpt>
      <trkpt lat="54.8972977" lon="23.9228608"><time>2026-09-07T08:14:25Z</time></trkpt>
      <trkpt lat="54.8972987" lon="23.9229752"><time>2026-09-07T08:14:30Z</time></trkpt>
      <trkpt lat="54.8973260" lon="23.9230925"><time>2026-09-07T08:14:35Z</time></trkpt>
      <trkpt lat="54.8973043" lon="23.9231944"><time>2026-09-07T08:14:40Z</time></trkpt>
      <trkpt lat="54.8973083" lon="23.9232901"><time>2026-09-07T08:14:45Z</time></trkpt>
      <trkpt lat="54.8973086" lon="23.9234113"><time>2026-09-07T08:14:50Z</time></trkpt>
      <trkpt lat="54.8973239" lon="23.9235459"><time>2026-09-07T08:14:55Z</time></trkpt>
      <trkpt lat="54.8973324" lon="23.9236234"><time>2026-09-07T08:15:00Z</time></trkpt>
      <trkpt lat="54.8973279" lon="23.9237942"><time>2026-09-07T08:15:05Z</time></trkpt>
      <trkpt lat="54.8973396" lon="23.9238449"><time>2026-09-07T08:15:10Z</time></trkpt>
      <trkpt lat="54.8973459" lon="23.9239694"><time>2026-09-07T08:15:15Z</time></trkpt>
      <trkpt lat="54.8973412" lon="23.9240581"><time>2026-09-07T08:15:20Z</time></trkpt>
      <trkpt lat="54.8973397" lon="23.9242014"><time>2026-09-07T08:15:25Z</time></trkpt>
      <trkpt lat="54.8973516" lon="23.9242839"><time>2026-09-07T08:15:30Z</time></trkpt>
      <trkpt lat="54.8973536" lon="23.9244123"><time>2026-09-07T08:15:35Z</time></trkpt>
      <trkpt lat="54.8973781" lon="23.9245181"><time>2026-09-07T08:15:40Z</time></trkpt>
      <trkpt lat="54.8973629" lon="23.9246312"><time>2026-09-07T08:15:45Z</time></trkpt>
      <trkpt lat="54.8973745" lon="23.9247199"><time>2026-09-07T08:15:50Z</time></trkpt>
      <trkpt lat="54.8973674" lon="23.9248211"><time>2026-09-07T08:15:55Z</time></trkpt>
      <trkpt lat="54.8973781" lon="23.9249528"><time>2026-09-07T08:16:00Z</time></trkpt>
      <trkpt lat="54.8973825" lon="23.9250724"><time>2026-09-07T08:16:05Z</time></trkpt>
      <trkpt lat="54.8973832" lon="23.9251566"><time>2026-09-07T08:16:10Z</time></trkpt>
      <trkpt lat="54.8974061" lon="23.9252671"><time>2026-09-07T08:16:15Z</time></trkpt>
      <trkpt lat="54.8974122" lon="23.9253774"><time>2026-09-07T08:16:20Z</time></trkpt>
      <trkpt lat="54.8973987" lon="23.9254964"><time>2026-09-07T08:16:25Z</time></trkpt>
      <trkpt lat="54.8974128" lon="23.9256272"><time>2026-09-07T08:16:30Z</time></trkpt>
      <trkpt lat="54.8974178" lon="23.9257152"><time>2026-09-07T08:16:35Z</time></trkpt>
      <trkpt lat="54.8974210" lon="23.9258477"><time>2026-09-07T08:16:40Z</time></trkpt>
      <trkpt lat="54.8974177" lon="23.9259204"><time>2026-09-07T08:16:45Z</time></trkpt>
      <trkpt lat="54.8974255" lon="23.9260324"><time>2026-09-07T08:16:50Z</time></trkpt>
      <trkpt lat="54.8974327" lon="23.9261522"><time>2026-09-07T08:16:55Z</time></trkpt>
      <trkpt lat="54.8974590" lon="23.9262669"><time>2026-09-07T08:17:00Z</time></trkpt>
      <trkpt lat="54.8974610" lon="23.9263628"><time>2026-09-07T08:17:05Z</time></trkpt>
      <trkpt lat="54.8974591" lon="23.9264645"><time>2026-09-07T08:17:10Z</time></trkpt>
      <trkpt lat="54.8974732" lon="23.9265833"><time>2026-09-07T08:17:15Z</time></trkpt>
      <trkpt lat="54.8974608" lon="23.9267010"><time>2026-09-07T08:17:20Z</time></trkpt>
      <trkpt lat="54.8974762" lon="23.9267913"><time>2026-09-07T08:17:25Z</time></trkpt>
      <trkpt lat="54.8974792" lon="23.9269243"><time>2026-09-07T08:17:30Z</time></trkpt>
      <trkpt lat="54.8974941" lon="23.9270100"><time>2026-09-07T08:17:35Z</time></trkpt>
      <trkpt lat="54.8974990" lon="23.9271314"><time>2026-09-07T08:17:40Z</time></trkpt>
      <trkpt lat="54.8974952" lon="23.9272288"><time>2026-09-07T08:17:45Z</time></trkpt>
      <trkpt lat="54.8975189" lon="23.9273441"><time>2026-09-07T08:17:50Z</time></trkpt>
      <trkpt lat="54.8975282" lon="23.9274630"><time>2026-09-07T08:17:55Z</time></trkpt>
      <trkpt lat="54.8975035" lon="23.9275919"><time>2026-09-07T08:18:00Z</time></trkpt>
      <trkpt lat="54.8975414" lon="23.9276664"><time>2026-09-07T08:18:05Z</time></trkpt>
      <trkpt lat="54.8975197" lon="23.9277770"><time>2026-09-07T08:18:10Z</time></trkpt>
      <trkpt lat="54.8975328" lon="23.9278964"><time>2026-09-07T08:18:15Z</time></trkpt>
      <trkpt lat="54.8975410" lon="23.9280036"><time>2026-09-07T08:18:20Z</time></trkpt>
      <trkpt lat="54.8975553" lon="23.9281146"><time>2026-09-07T08:18:25Z</time></trkpt>
      <trkpt lat="54.8975406" lon="23.9282135"><time>2026-09-07T08:18:30Z</time></trkpt>
      <trkpt lat="54.8975511" lon="23.9283188"><time>2026-09-07T08:18:35Z</time></trkpt>
      <trkpt lat="54.8975591" lon="23.9284333"><time>2026-09-07T08:18:40Z</time></trkpt>
      <trkpt lat="54.8975871" lon="23.9285320"><time>2026-09-07T08:18:45Z</time></trkpt>
      <trkpt lat="54.8975917" lon="23.9286621"><time>2026-09-07T08:18:50Z</time></trkpt>
      <trkpt lat="54.8975878" lon="23.9287785"><time>2026-09-07T08:18:55Z</time></trkpt>
      <trkpt lat="54.8975901" lon="23.9288650"><time>2026-09-07T08:19:00Z</time></trkpt>
      <trkpt lat="54.8976071" lon="23.9289853"><time>2026-09-07T08:19:05Z</time></trkpt>
    </trkseg>
  </trk>
</gpx>
